[{"OBJECT_NAME":"HULIANWANG DIGUI-81","OBJECT_ID":"2025-187J","EPOCH":"2026-03-15T07:19:01.714944","MEAN_MOTION":13.29342119,"ECCENTRICITY":0.00010203,"INCLINATION":50.0064,"RA_OF_ASC_NODE":182.5388,"ARG_OF_PERICENTER":174.621,"MEAN_ANOMALY":185.4673,"EPHEMERIS_TYPE":0,"CLASSIFICATION_TYPE":"U","NORAD_CAT_ID":65313,"ELEMENT_SET_NO":999,"REV_AT_EPOCH":2722,"BSTAR":3.8084424e-5,"MEAN_MOTION_DOT":-1.06e-6,"MEAN_MOTION_DDOT":0},{"OBJECT_NAME":"HULIANWANG DIGUI-82","OBJECT_ID":"2025-220A","EPOCH":"2026-03-15T06:11:30.611616","MEAN_MOTION":13.24422602,"ECCENTRICITY":0.00023776,"INCLINATION":86.49,"RA_OF_ASC_NODE":75.5806,"ARG_OF_PERICENTER":92.6279,"MEAN_ANOMALY":267.5128,"EPHEMERIS_TYPE":0,"CLASSIFICATION_TYPE":"U","NORAD_CAT_ID":65817,"ELEMENT_SET_NO":999,"REV_AT_EPOCH":2248,"BSTAR":0.00018077074,"MEAN_MOTION_DOT":9.2e-7,"MEAN_MOTION_DDOT":0},{"OBJECT_NAME":"HULIANWANG DIGUI-83","OBJECT_ID":"2025-220B","EPOCH":"2026-03-15T06:00:42.681600","MEAN_MOTION":13.24421747,"ECCENTRICITY":0.00023604,"INCLINATION":86.4922,"RA_OF_ASC_NODE":75.6156,"ARG_OF_PERICENTER":92.7207,"MEAN_ANOMALY":267.4197,"EPHEMERIS_TYPE":0,"CLASSIFICATION_TYPE":"U","NORAD_CAT_ID":65818,"ELEMENT_SET_NO":999,"REV_AT_EPOCH":2248,"BSTAR":0.00016350833,"MEAN_MOTION_DOT":8.5e-7,"MEAN_MOTION_DDOT":0},{"OBJECT_NAME":"HULIANWANG DIGUI-84","OBJECT_ID":"2025-220C","EPOCH":"2026-03-15T07:38:34.600992","MEAN_MOTION":13.24422173,"ECCENTRICITY":0.00023454,"INCLINATION":86.486,"RA_OF_ASC_NODE":75.4775,"ARG_OF_PERICENTER":91.854,"MEAN_ANOMALY":268.2863,"EPHEMERIS_TYPE":0,"CLASSIFICATION_TYPE":"U","NORAD_CAT_ID":65819,"ELEMENT_SET_NO":999,"REV_AT_EPOCH":2249,"BSTAR":0.00013139421,"MEAN_MOTION_DOT":7.1e-7,"MEAN_MOTION_DDOT":0},{"OBJECT_NAME":"HULIANWANG DIGUI-85","OBJECT_ID":"2025-220D","EPOCH":"2026-03-15T07:27:37.571328","MEAN_MOTION":13.24422697,"ECCENTRICITY":0.00023499,"INCLINATION":86.492,"RA_OF_ASC_NODE":75.5801,"ARG_OF_PERICENTER":92.9347,"MEAN_ANOMALY":267.2056,"EPHEMERIS_TYPE":0,"CLASSIFICATION_TYPE":"U","NORAD_CAT_ID":65820,"ELEMENT_SET_NO":999,"REV_AT_EPOCH":2249,"BSTAR":9.2258019e-5,"MEAN_MOTION_DOT":5.4e-7,"MEAN_MOTION_DDOT":0},{"OBJECT_NAME":"HULIANWANG DIGUI-86","OBJECT_ID":"2025-220E","EPOCH":"2026-03-15T07:16:53.169888","MEAN_MOTION":13.24421581,"ECCENTRICITY":0.00023432,"INCLINATION":86.4899,"RA_OF_ASC_NODE":75.5393,"ARG_OF_PERICENTER":92.739,"MEAN_ANOMALY":267.4013,"EPHEMERIS_TYPE":0,"CLASSIFICATION_TYPE":"U","NORAD_CAT_ID":65821,"ELEMENT_SET_NO":999,"REV_AT_EPOCH":2249,"BSTAR":9.2197048e-5,"MEAN_MOTION_DOT":5.4e-7,"MEAN_MOTION_DDOT":0},{"OBJECT_NAME":"HULIANWANG DIGUI-87","OBJECT_ID":"2025-231A","EPOCH":"2026-03-15T06:23:17.894976","MEAN_MOTION":13.29331108,"ECCENTRICITY":6.459e-5,"INCLINATION":49.9992,"RA_OF_ASC_NODE":152.7213,"ARG_OF_PERICENTER":227.7462,"MEAN_ANOMALY":132.3355,"EPHEMERIS_TYPE":0,"CLASSIFICATION_TYPE":"U","NORAD_CAT_ID":65995,"ELEMENT_SET_NO":999,"REV_AT_EPOCH":2039,"BSTAR":7.1853743e-5,"MEAN_MOTION_DOT":-9.1e-7,"MEAN_MOTION_DDOT":0},{"OBJECT_NAME":"HULIANWANG DIGUI-88","OBJECT_ID":"2025-231B","EPOCH":"2026-03-15T06:35:22.125696","MEAN_MOTION":13.29330148,"ECCENTRICITY":6.828e-5,"INCLINATION":49.9978,"RA_OF_ASC_NODE":152.7501,"ARG_OF_PERICENTER":232.5369,"MEAN_ANOMALY":127.5441,"EPHEMERIS_TYPE":0,"CLASSIFICATION_TYPE":"U","NORAD_CAT_ID":65996,"ELEMENT_SET_NO":999,"REV_AT_EPOCH":2039,"BSTAR":7.741716e-5,"MEAN_MOTION_DOT":-8.8e-7,"MEAN_MOTION_DDOT":0},{"OBJECT_NAME":"HULIANWANG DIGUI-89","OBJECT_ID":"2025-231C","EPOCH":"2026-03-15T06:11:16.028160","MEAN_MOTION":13.29330812,"ECCENTRICITY":6.901e-5,"INCLINATION":49.9956,"RA_OF_ASC_NODE":152.6358,"ARG_OF_PERICENTER":233.6672,"MEAN_ANOMALY":126.4136,"EPHEMERIS_TYPE":0,"CLASSIFICATION_TYPE":"U","NORAD_CAT_ID":65997,"ELEMENT_SET_NO":999,"REV_AT_EPOCH":2039,"BSTAR":7.3480434e-5,"MEAN_MOTION_DOT":-9.0e-7,"MEAN_MOTION_DDOT":0},{"OBJECT_NAME":"HULIANWANG DIGUI-90","OBJECT_ID":"2025-231D","EPOCH":"2026-03-14T22:46:12.332640","MEAN_MOTION":13.29331017,"ECCENTRICITY":6.587e-5,"INCLINATION":49.999,"RA_OF_ASC_NODE":153.7068,"ARG_OF_PERICENTER":234.3779,"MEAN_ANOMALY":125.7032,"EPHEMERIS_TYPE":0,"CLASSIFICATION_TYPE":"U","NORAD_CAT_ID":65998,"ELEMENT_SET_NO":999,"REV_AT_EPOCH":2035,"BSTAR":6.3588242e-5,"MEAN_MOTION_DOT":-9.5e-7,"MEAN_MOTION_DDOT":0},{"OBJECT_NAME":"HULIANWANG DIGUI-91","OBJECT_ID":"2025-231E","EPOCH":"2026-03-15T05:47:12.810336","MEAN_MOTION":13.29330931,"ECCENTRICITY":6.839e-5,"INCLINATION":50.0004,"RA_OF_ASC_NODE":152.61,"ARG_OF_PERICENTER":233.4354,"MEAN_ANOMALY":126.6456,"EPHEMERIS_TYPE":0,"CLASSIFICATION_TYPE":"U","NORAD_CAT_ID":65999,"ELEMENT_SET_NO":999,"REV_AT_EPOCH":2039,"BSTAR":6.2093683e-5,"MEAN_MOTION_DOT":-9.5e-7,"MEAN_MOTION_DDOT":0},{"OBJECT_NAME":"HULIANWANG DIGUI-92","OBJECT_ID":"2025-231F","EPOCH":"2026-03-15T05:35:10.031136","MEAN_MOTION":13.29331493,"ECCENTRICITY":6.812e-5,"INCLINATION":50.0046,"RA_OF_ASC_NODE":152.6147,"ARG_OF_PERICENTER":233.4509,"MEAN_ANOMALY":126.63,"EPHEMERIS_TYPE":0,"CLASSIFICATION_TYPE":"U","NORAD_CAT_ID":66000,"ELEMENT_SET_NO":999,"REV_AT_EPOCH":2039,"BSTAR":7.5251021e-5,"MEAN_MOTION_DOT":-8.9e-7,"MEAN_MOTION_DDOT":0},{"OBJECT_NAME":"HULIANWANG DIGUI-93","OBJECT_ID":"2025-231G","EPOCH":"2026-03-15T06:59:25.467072","MEAN_MOTION":13.29330501,"ECCENTRICITY":6.649e-5,"INCLINATION":50.0013,"RA_OF_ASC_NODE":152.2228,"ARG_OF_PERICENTER":233.6066,"MEAN_ANOMALY":126.4745,"EPHEMERIS_TYPE":0,"CLASSIFICATION_TYPE":"U","NORAD_CAT_ID":66001,"ELEMENT_SET_NO":999,"REV_AT_EPOCH":2040,"BSTAR":6.5392358e-5,"MEAN_MOTION_DOT":-9.4e-7,"MEAN_MOTION_DDOT":0},{"OBJECT_NAME":"HULIANWANG DIGUI-94","OBJECT_ID":"2025-231H","EPOCH":"2026-03-15T07:11:23.814816","MEAN_MOTION":13.29331698,"ECCENTRICITY":6.886e-5,"INCLINATION":50.0051,"RA_OF_ASC_NODE":152.3135,"ARG_OF_PERICENTER":233.6277,"MEAN_ANOMALY":126.4532,"EPHEMERIS_TYPE":0,"CLASSIFICATION_TYPE":"U","NORAD_CAT_ID":66002,"ELEMENT_SET_NO":999,"REV_AT_EPOCH":2040,"BSTAR":6.3524146e-5,"MEAN_MOTION_DOT":-9.5e-7,"MEAN_MOTION_DDOT":0},{"OBJECT_NAME":"HULIANWANG DIGUI-95","OBJECT_ID":"2025-231J","EPOCH":"2026-03-15T06:47:38.754816","MEAN_MOTION":13.29326613,"ECCENTRICITY":6.662e-5,"INCLINATION":50.0024,"RA_OF_ASC_NODE":152.1953,"ARG_OF_PERICENTER":230.0031,"MEAN_ANOMALY":130.0782,"EPHEMERIS_TYPE":0,"CLASSIFICATION_TYPE":"U","NORAD_CAT_ID":66003,"ELEMENT_SET_NO":999,"REV_AT_EPOCH":2040,"BSTAR":7.1844087e-5,"MEAN_MOTION_DOT":-9.1e-7,"MEAN_MOTION_DDOT":0},{"OBJECT_NAME":"HULIANWANG DIGUI-96","OBJECT_ID":"2025-258A","EPOCH":"2026-03-15T05:33:08.635680","MEAN_MOTION":13.29332381,"ECCENTRICITY":5.242e-5,"INCLINATION":50.0037,"RA_OF_ASC_NODE":272.6141,"ARG_OF_PERICENTER":131.743,"MEAN_ANOMALY":228.3487,"EPHEMERIS_TYPE":0,"CLASSIFICATION_TYPE":"U","NORAD_CAT_ID":66412,"ELEMENT_SET_NO":999,"REV_AT_EPOCH":1723,"BSTAR":0.00010585254,"MEAN_MOTION_DOT":-7.5e-7,"MEAN_MOTION_DDOT":0}]
