HULIANWANG DIGUI-81     
1 65313U 25187J   26074.30488096 -.00000106  00000+0  38084-4 0  9992
2 65313  50.0064 182.5388 0001020 174.6210 185.4673 13.29342119 27226
HULIANWANG DIGUI-82     
1 65817U 25220A   26074.25799319  .00000092  00000+0  18077-3 0  9998
2 65817  86.4900  75.5806 0002377  92.6279 267.5128 13.24422602 22484
HULIANWANG DIGUI-83     
1 65818U 25220B   26074.25049400  .00000085  00000+0  16351-3 0  9993
2 65818  86.4922  75.6156 0002360  92.7207 267.4197 13.24421747 22486
HULIANWANG DIGUI-84     
1 65819U 25220C   26074.31845603  .00000071  00000+0  13139-3 0  9996
2 65819  86.4860  75.4775 0002345  91.8540 268.2863 13.24422173 22490
HULIANWANG DIGUI-85     
1 65820U 25220D   26074.31085152  .00000054  00000+0  92258-4 0  9994
2 65820  86.4920  75.5801 0002349  92.9347 267.2056 13.24422697 22495
HULIANWANG DIGUI-86     
1 65821U 25220E   26074.30339317  .00000054  00000+0  92197-4 0  9991
2 65821  86.4899  75.5393 0002343  92.7390 267.4013 13.24421581 22493
HULIANWANG DIGUI-87     
1 65995U 25231A   26074.26617934 -.00000091  00000+0  71854-4 0  9993
2 65995  49.9992 152.7213 0000645 227.7462 132.3355 13.29331108 20391
HULIANWANG DIGUI-88     
1 65996U 25231B   26074.27456164 -.00000088  00000+0  77417-4 0  9998
2 65996  49.9978 152.7501 0000682 232.5369 127.5441 13.29330148 20392
HULIANWANG DIGUI-89     
1 65997U 25231C   26074.25782440 -.00000090  00000+0  73480-4 0  9995
2 65997  49.9956 152.6358 0000690 233.6672 126.4136 13.29330812 20393
HULIANWANG DIGUI-90     
1 65998U 25231D   26073.94875385 -.00000095  00000+0  63588-4 0  9995
2 65998  49.9990 153.7068 0000658 234.3779 125.7032 13.29331017 20353
HULIANWANG DIGUI-91     
1 65999U 25231E   26074.24112049 -.00000095  00000+0  62094-4 0  9992
2 65999  50.0004 152.6100 0000683 233.4354 126.6456 13.29330931 20393
HULIANWANG DIGUI-92     
1 66000U 25231F   26074.23275499 -.00000089  00000+0  75251-4 0  9996
2 66000  50.0046 152.6147 0000681 233.4509 126.6300 13.29331493 20396
HULIANWANG DIGUI-93     
1 66001U 25231G   26074.29126698 -.00000094  00000+0  65392-4 0  9990
2 66001  50.0013 152.2228 0000664 233.6066 126.4745 13.29330501 20400
HULIANWANG DIGUI-94     
1 66002U 25231H   26074.29958119 -.00000095  00000+0  63524-4 0  9998
2 66002  50.0051 152.3135 0000688 233.6277 126.4532 13.29331698 20403
HULIANWANG DIGUI-95     
1 66003U 25231J   26074.28308744 -.00000091  00000+0  71844-4 0  9991
2 66003  50.0024 152.1953 0000666 230.0031 130.0782 13.29326613 20404
HULIANWANG DIGUI-96     
1 66412U 25258A   26074.23134995 -.00000075  00000+0  10585-3 0  9990
2 66412  50.0037 272.6141 0000524 131.7430 228.3487 13.29332381 17231
